[{"OBJECT_NAME":"STARLINK-4554","OBJECT_ID":"2022-104AQ","EPOCH":"2025-11-16T13:48:19.712160","MEAN_MOTION":15.08841003,"ECCENTRICITY":0.00015589,"INCLINATION":53.2204,"RA_OF_ASC_NODE":21.5498,"ARG_OF_PERICENTER":112.7297,"MEAN_ANOMALY":247.386,"EPHEMERIS_TYPE":0,"CLASSIFICATION_TYPE":"U","NORAD_CAT_ID":53626,"ELEMENT_SET_NO":999,"REV_AT_EPOCH":17868,"BSTAR":0.00010370222,"MEAN_MOTION_DOT":1.363e-5,"MEAN_MOTION_DDOT":0},{"OBJECT_NAME":"STARLINK-4595","OBJECT_ID":"2022-104AR","EPOCH":"2025-11-16T13:58:55.953120","MEAN_MOTION":15.08878353,"ECCENTRICITY":0.0001547,"INCLINATION":53.2182,"RA_OF_ASC_NODE":21.5987,"ARG_OF_PERICENTER":98.0266,"MEAN_ANOMALY":262.0902,"EPHEMERIS_TYPE":0,"CLASSIFICATION_TYPE":"U","NORAD_CAT_ID":53627,"ELEMENT_SET_NO":999,"REV_AT_EPOCH":17868,"BSTAR":0.00077734461,"MEAN_MOTION_DOT":0.00012118,"MEAN_MOTION_DDOT":0},{"OBJECT_NAME":"STARLINK-4600","OBJECT_ID":"2022-104AS","EPOCH":"2025-11-16T13:37:39.568512","MEAN_MOTION":15.08887286,"ECCENTRICITY":0.00014473,"INCLINATION":53.2203,"RA_OF_ASC_NODE":21.5052,"ARG_OF_PERICENTER":83.4961,"MEAN_ANOMALY":276.6196,"EPHEMERIS_TYPE":0,"CLASSIFICATION_TYPE":"U","NORAD_CAT_ID":53628,"ELEMENT_SET_NO":999,"REV_AT_EPOCH":17868,"BSTAR":0.00014447916,"MEAN_MOTION_DOT":2.015e-5,"MEAN_MOTION_DDOT":0},{"OBJECT_NAME":"STARLINK-4602","OBJECT_ID":"2022-104AT","EPOCH":"2025-11-16T13:53:36.261888","MEAN_MOTION":15.08849138,"ECCENTRICITY":0.00018234,"INCLINATION":53.2188,"RA_OF_ASC_NODE":21.5734,"ARG_OF_PERICENTER":106.726,"MEAN_ANOMALY":253.3933,"EPHEMERIS_TYPE":0,"CLASSIFICATION_TYPE":"U","NORAD_CAT_ID":53629,"ELEMENT_SET_NO":999,"REV_AT_EPOCH":17868,"BSTAR":-0.00059972511,"MEAN_MOTION_DOT":-9.823e-5,"MEAN_MOTION_DDOT":0},{"OBJECT_NAME":"STARLINK-4598","OBJECT_ID":"2022-104AU","EPOCH":"2025-11-16T09:57:56.579616","MEAN_MOTION":15.08864733,"ECCENTRICITY":0.00016304,"INCLINATION":53.2193,"RA_OF_ASC_NODE":12.7011,"ARG_OF_PERICENTER":81.3863,"MEAN_ANOMALY":278.7314,"EPHEMERIS_TYPE":0,"CLASSIFICATION_TYPE":"U","NORAD_CAT_ID":53630,"ELEMENT_SET_NO":999,"REV_AT_EPOCH":17896,"BSTAR":0.00054784096,"MEAN_MOTION_DOT":8.447e-5,"MEAN_MOTION_DDOT":0},{"OBJECT_NAME":"STARLINK-4599","OBJECT_ID":"2022-104AV","EPOCH":"2025-11-16T11:57:01.202112","MEAN_MOTION":15.08870594,"ECCENTRICITY":0.00014097,"INCLINATION":53.2187,"RA_OF_ASC_NODE":21.7815,"ARG_OF_PERICENTER":88.1263,"MEAN_ANOMALY":271.989,"EPHEMERIS_TYPE":0,"CLASSIFICATION_TYPE":"U","NORAD_CAT_ID":53631,"ELEMENT_SET_NO":999,"REV_AT_EPOCH":17867,"BSTAR":0.0005546339,"MEAN_MOTION_DOT":8.557e-5,"MEAN_MOTION_DDOT":0},{"OBJECT_NAME":"STARLINK-4606","OBJECT_ID":"2022-104AW","EPOCH":"2025-11-16T11:21:19.851552","MEAN_MOTION":15.08866853,"ECCENTRICITY":0.00011676,"INCLINATION":53.2182,"RA_OF_ASC_NODE":12.3544,"ARG_OF_PERICENTER":108.0233,"MEAN_ANOMALY":252.0886,"EPHEMERIS_TYPE":0,"CLASSIFICATION_TYPE":"U","NORAD_CAT_ID":53632,"ELEMENT_SET_NO":999,"REV_AT_EPOCH":17913,"BSTAR":0.00046568743,"MEAN_MOTION_DOT":7.137e-5,"MEAN_MOTION_DDOT":0},{"OBJECT_NAME":"STARLINK-4593","OBJECT_ID":"2022-104AX","EPOCH":"2025-11-16T13:02:00.957696","MEAN_MOTION":15.08865989,"ECCENTRICITY":0.00013484,"INCLINATION":53.2171,"RA_OF_ASC_NODE":12.0793,"ARG_OF_PERICENTER":83.1385,"MEAN_ANOMALY":276.976,"EPHEMERIS_TYPE":0,"CLASSIFICATION_TYPE":"U","NORAD_CAT_ID":53633,"ELEMENT_SET_NO":999,"REV_AT_EPOCH":17881,"BSTAR":0.00075614299,"MEAN_MOTION_DOT":0.00011775,"MEAN_MOTION_DDOT":0},{"OBJECT_NAME":"STARLINK-4592","OBJECT_ID":"2022-104AY","EPOCH":"2025-11-16T19:07:38.341056","MEAN_MOTION":15.08845837,"ECCENTRICITY":0.0001023,"INCLINATION":53.218,"RA_OF_ASC_NODE":10.8185,"ARG_OF_PERICENTER":86.7583,"MEAN_ANOMALY":273.3526,"EPHEMERIS_TYPE":0,"CLASSIFICATION_TYPE":"U","NORAD_CAT_ID":53634,"ELEMENT_SET_NO":999,"REV_AT_EPOCH":17918,"BSTAR":0.00023163,"MEAN_MOTION_DOT":3.401e-5,"MEAN_MOTION_DDOT":0},{"OBJECT_NAME":"STARLINK-4587","OBJECT_ID":"2022-104AZ","EPOCH":"2025-11-16T12:51:24.446304","MEAN_MOTION":15.0884573,"ECCENTRICITY":0.00011031,"INCLINATION":53.2189,"RA_OF_ASC_NODE":12.0321,"ARG_OF_PERICENTER":89.5871,"MEAN_ANOMALY":270.5248,"EPHEMERIS_TYPE":0,"CLASSIFICATION_TYPE":"U","NORAD_CAT_ID":53635,"ELEMENT_SET_NO":999,"REV_AT_EPOCH":17914,"BSTAR":0.00032450909,"MEAN_MOTION_DOT":4.881e-5,"MEAN_MOTION_DDOT":0},{"OBJECT_NAME":"STARLINK-4586","OBJECT_ID":"2022-104BA","EPOCH":"2025-11-16T12:35:30.626592","MEAN_MOTION":15.08905821,"ECCENTRICITY":0.00011222,"INCLINATION":53.2183,"RA_OF_ASC_NODE":11.9644,"ARG_OF_PERICENTER":95.8752,"MEAN_ANOMALY":264.2368,"EPHEMERIS_TYPE":0,"CLASSIFICATION_TYPE":"U","NORAD_CAT_ID":53636,"ELEMENT_SET_NO":999,"REV_AT_EPOCH":17914,"BSTAR":0.0017276875,"MEAN_MOTION_DOT":0.00027365,"MEAN_MOTION_DDOT":0},{"OBJECT_NAME":"STARLINK-4396","OBJECT_ID":"2022-104BB","EPOCH":"2025-11-16T10:13:50.594592","MEAN_MOTION":15.08850129,"ECCENTRICITY":0.00013714,"INCLINATION":53.219,"RA_OF_ASC_NODE":12.7633,"ARG_OF_PERICENTER":88.5531,"MEAN_ANOMALY":271.5618,"EPHEMERIS_TYPE":0,"CLASSIFICATION_TYPE":"U","NORAD_CAT_ID":53637,"ELEMENT_SET_NO":999,"REV_AT_EPOCH":17912,"BSTAR":0.00025427558,"MEAN_MOTION_DOT":3.762e-5,"MEAN_MOTION_DDOT":0},{"OBJECT_NAME":"STARLINK-4594","OBJECT_ID":"2022-104BC","EPOCH":"2025-11-16T13:44:20.779872","MEAN_MOTION":15.08847566,"ECCENTRICITY":0.00013391,"INCLINATION":53.2183,"RA_OF_ASC_NODE":11.5555,"ARG_OF_PERICENTER":104.9308,"MEAN_ANOMALY":255.1833,"EPHEMERIS_TYPE":0,"CLASSIFICATION_TYPE":"U","NORAD_CAT_ID":53638,"ELEMENT_SET_NO":999,"REV_AT_EPOCH":17915,"BSTAR":0.00014082727,"MEAN_MOTION_DOT":1.955e-5,"MEAN_MOTION_DDOT":0},{"OBJECT_NAME":"STARLINK-4422","OBJECT_ID":"2022-104BD","EPOCH":"2025-11-16T09:19:23.561760","MEAN_MOTION":15.08836104,"ECCENTRICITY":0.00012,"INCLINATION":53.2182,"RA_OF_ASC_NODE":12.536,"ARG_OF_PERICENTER":116.5003,"MEAN_ANOMALY":243.6113,"EPHEMERIS_TYPE":0,"CLASSIFICATION_TYPE":"U","NORAD_CAT_ID":53639,"ELEMENT_SET_NO":999,"REV_AT_EPOCH":17895,"BSTAR":0.00082054924,"MEAN_MOTION_DOT":0.00012794,"MEAN_MOTION_DDOT":0},{"OBJECT_NAME":"STARLINK-4597","OBJECT_ID":"2022-104BE","EPOCH":"2025-11-16T12:24:51.679584","MEAN_MOTION":15.08840359,"ECCENTRICITY":9.464e-5,"INCLINATION":53.2179,"RA_OF_ASC_NODE":11.9184,"ARG_OF_PERICENTER":94.1598,"MEAN_ANOMALY":265.9502,"EPHEMERIS_TYPE":0,"CLASSIFICATION_TYPE":"U","NORAD_CAT_ID":53640,"ELEMENT_SET_NO":999,"REV_AT_EPOCH":17914,"BSTAR":-0.00013485421,"MEAN_MOTION_DOT":-2.433e-5,"MEAN_MOTION_DDOT":0},{"OBJECT_NAME":"STARLINK-4588","OBJECT_ID":"2022-104BF","EPOCH":"2025-11-16T12:40:47.908992","MEAN_MOTION":15.08874511,"ECCENTRICITY":0.00013798,"INCLINATION":53.218,"RA_OF_ASC_NODE":11.9833,"ARG_OF_PERICENTER":90.9241,"MEAN_ANOMALY":269.191,"EPHEMERIS_TYPE":0,"CLASSIFICATION_TYPE":"U","NORAD_CAT_ID":53641,"ELEMENT_SET_NO":999,"REV_AT_EPOCH":17914,"BSTAR":0.00098561951,"MEAN_MOTION_DOT":0.00015448,"MEAN_MOTION_DDOT":0}]
