STARLINK-4554           
1 53626U 22104AQ  25320.57522815  .00001363  00000+0  10370-3 0  9994
2 53626  53.2204  21.5498 0001558 112.7297 247.3860 15.08841003178687
STARLINK-4595           
1 53627U 22104AR  25320.58259205  .00012118  00000+0  77734-3 0  9993
2 53627  53.2182  21.5987 0001547  98.0266 262.0902 15.08878353178685
STARLINK-4600           
1 53628U 22104AS  25320.56781908  .00002015  00000+0  14448-3 0  9990
2 53628  53.2203  21.5052 0001447  83.4961 276.6196 15.08887286178683
STARLINK-4602           
1 53629U 22104AT  25320.57889192 -.00009823  00000+0 -59973-3 0  9994
2 53629  53.2188  21.5734 0001823 106.7260 253.3933 15.08849138178687
STARLINK-4598           
1 53630U 22104AU  25320.41523819  .00008447  00000+0  54784-3 0  9994
2 53630  53.2193  12.7011 0001630  81.3863 278.7314 15.08864733178961
STARLINK-4599           
1 53631U 22104AV  25320.49793058  .00008557  00000+0  55463-3 0  9994
2 53631  53.2187  21.7815 0001409  88.1263 271.9890 15.08870594178674
STARLINK-4606           
1 53632U 22104AW  25320.47314643  .00007137  00000+0  46569-3 0  9992
2 53632  53.2182  12.3544 0001167 108.0233 252.0886 15.08866853179135
STARLINK-4593           
1 53633U 22104AX  25320.54306664  .00011775  00000+0  75614-3 0  9991
2 53633  53.2171  12.0793 0001348  83.1385 276.9760 15.08865989178818
STARLINK-4592           
1 53634U 22104AY  25320.79697154  .00003401  00000+0  23163-3 0  9995
2 53634  53.2180  10.8185 0001023  86.7583 273.3526 15.08845837179181
STARLINK-4587           
1 53635U 22104AZ  25320.53569961  .00004881  00000+0  32451-3 0  9995
2 53635  53.2189  12.0321 0001103  89.5871 270.5248 15.08845730179145
STARLINK-4586           
1 53636U 22104BA  25320.52466003  .00027365  00000+0  17277-2 0  9998
2 53636  53.2183  11.9644 0001122  95.8752 264.2368 15.08905821179146
STARLINK-4396           
1 53637U 22104BB  25320.42628003  .00003762  00000+0  25428-3 0  9991
2 53637  53.2190  12.7633 0001371  88.5531 271.5618 15.08850129179129
STARLINK-4594           
1 53638U 22104BC  25320.57246273  .00001955  00000+0  14083-3 0  9990
2 53638  53.2183  11.5555 0001339 104.9308 255.1833 15.08847566179152
STARLINK-4422           
1 53639U 22104BD  25320.38846715  .00012794  00000+0  82055-3 0  9994
2 53639  53.2182  12.5360 0001200 116.5003 243.6113 15.08836104178951
STARLINK-4597           
1 53640U 22104BE  25320.51726481 -.00002433  00000+0 -13485-3 0  9990
2 53640  53.2179  11.9184 0000946  94.1598 265.9502 15.08840359179140
STARLINK-4588           
1 53641U 22104BF  25320.52833228  .00015448  00000+0  98562-3 0  9997
2 53641  53.2180  11.9833 0001379  90.9241 269.1910 15.08874511179140
